[{"OBJECT_NAME":"STARLINK-3823","OBJECT_ID":"2022-045F","EPOCH":"2026-03-09T21:06:14.803200","MEAN_MOTION":15.08844003,"ECCENTRICITY":0.00011113,"INCLINATION":53.2166,"RA_OF_ASC_NODE":208.0666,"ARG_OF_PERICENTER":83.8114,"MEAN_ANOMALY":276.3005,"EPHEMERIS_TYPE":0,"CLASSIFICATION_TYPE":"U","NORAD_CAT_ID":52336,"ELEMENT_SET_NO":999,"REV_AT_EPOCH":21567,"BSTAR":3.2659351e-5,"MEAN_MOTION_DOT":2.32e-6,"MEAN_MOTION_DDOT":0},{"OBJECT_NAME":"DISKSAT B","OBJECT_ID":"2025-305B","EPOCH":"2026-03-09T19:33:34.074144","MEAN_MOTION":15.07484556,"ECCENTRICITY":0.00037827,"INCLINATION":45.0018,"RA_OF_ASC_NODE":250.2098,"ARG_OF_PERICENTER":311.4052,"MEAN_ANOMALY":48.6498,"EPHEMERIS_TYPE":0,"CLASSIFICATION_TYPE":"U","NORAD_CAT_ID":67220,"ELEMENT_SET_NO":999,"REV_AT_EPOCH":1231,"BSTAR":0.00082400752,"MEAN_MOTION_DOT":0.00012481,"MEAN_MOTION_DDOT":0}]
