STARLINK-3823           
1 52336U 22045F   26068.87933800  .00000232  00000+0  32659-4 0  9997
2 52336  53.2166 208.0666 0001111  83.8114 276.3005 15.08844003215678
DISKSAT B               
1 67220U 25305B   26068.81497770  .00012481  00000+0  82401-3 0  9990
2 67220  45.0018 250.2098 0003783 311.4052  48.6498 15.07484556 12311
